ELECTRON KICK STAGE R/B 
1 67074U 25297C   25348.93255946  .00219816  14512-4  12691-2 0  9999
2 67074  97.4820 136.4892 0208562 261.5400  96.2167 15.53992131   123
