CCSDS_OMM_VERS = 2.0
CREATION_DATE  = 
ORIGINATOR     = 

OBJECT_NAME    = ELECTRON KICK STAGE R/B
OBJECT_ID      = 2025-297C
CENTER_NAME    = EARTH
REF_FRAME      = TEME
TIME_SYSTEM    = UTC
MEAN_ELEMENT_THEORY = SGP/SGP4

EPOCH          = 2025-12-14T22:22:53.137344
MEAN_MOTION    = 15.53992131
ECCENTRICITY   = .02085624
INCLINATION    = 97.4820
RA_OF_ASC_NODE = 136.4892
ARG_OF_PERICENTER = 261.5400
MEAN_ANOMALY   = 96.2167

EPHEMERIS_TYPE = 0
CLASSIFICATION_TYPE = U
NORAD_CAT_ID   = 67074
ELEMENT_SET_NO = 999
REV_AT_EPOCH   = 12
BSTAR          = .12691251E-2
MEAN_MOTION_DOT = .219816E-2
MEAN_MOTION_DDOT = .14512242E-4

